NORAD_CAT_ID,OBJECT_NAME,OBJECT_TYPE,EPOCH,MEAN_MOTION,ECCENTRICITY,INCLINATION,RA_OF_ASC_NODE,ARG_OF_PERICENTER,MEAN_ANOMALY,BSTAR,MEAN_MOTION_DOT,MEAN_MOTION_DDOT,TLE_LINE0,TLE_LINE1,TLE_LINE2,SEMIMAJOR_AXIS,PERIOD,APOGEE,PERIGEE,DECAYED
51757.0,STARLINK-3459,PAYLOAD,2023-09-20 17:31:24,15.08854195,0.0001218,53.2182,33.6953,80.8576,279.2554,0.00025321,3.746e-05,0.0,0 STARLINK-3459,1 51757U 22016AV  23263.73013897  .00003746  00000-0  25321-3 0  9996,2 51757  53.2182  33.6953 0001218  80.8576 279.2554 15.08854195 87693,6917.837,95.437,540.545,538.859,0.0
51757.0,STARLINK-3459,PAYLOAD,2023-09-21 12:36:02,15.08826877,0.0001429,53.2187,30.1281,96.0571,264.0584,0.00035678,5.393e-05,0.0,0 STARLINK-3459,1 51757U 22016AV  23264.52503080  .00005393  00000-0  35678-3 0  9998,2 51757  53.2187  30.1281 0001429  96.0571 264.0584 15.08826877 87817,6917.921,95.438,540.774,538.797,0.0
51757.0,STARLINK-3459,PAYLOAD,2023-09-21 17:22:12,15.08834425,0.0001344,53.2181,29.2354,93.4095,266.705,0.00074339,0.00011561,0.0,0 STARLINK-3459,1 51757U 22016AV  23264.72375189  .00011561  00000-0  74339-3 0  9998,2 51757  53.2181  29.2354 0001344  93.4095 266.7050 15.08834425 88950,6917.897,95.438,540.692,538.833,0.0
51757.0,STARLINK-3459,PAYLOAD,2023-09-22 12:26:49,15.08851402,0.0001244,53.2175,25.667,93.9161,266.1973,0.000799,0.00012455,0.0,0 STARLINK-3459,1 51757U 22016AV  23265.51863089  .00012455  00000-0  79900-3 0  9999,2 51757  53.2175  25.6670 0001244  93.9161 266.1973 15.08851402 87964,6917.846,95.437,540.571,538.85,0.0
51757.0,STARLINK-3459,PAYLOAD,2023-09-22 20:23:44,15.08872031,0.0001269,53.2171,24.1792,85.2628,274.8509,0.0012689,0.00019982,0.0,0 STARLINK-3459,1 51757U 22016AV  23265.84982469  .00019982  00000-0  12689-2 0  9991,2 51757  53.2171  24.1792 0001269  85.2628 274.8509 15.08872031 88017,6917.782,95.436,540.525,538.77,0.0
51757.0,STARLINK-3459,PAYLOAD,2023-09-23 01:09:54,15.08855671,7.81e-05,53.2173,23.287,94.1879,265.9203,0.0004481,6.854e-05,0.0,0 STARLINK-3459,1 51757U 22016AV  23266.04854380  .00006854  00000-0  44810-3 0  9990,2 51757  53.2173  23.2870 0000781  94.1879 265.9203 15.08855671 89150,6917.832,95.437,540.238,539.157,0.0
51757.0,STARLINK-3459,PAYLOAD,2023-09-23 12:17:35,15.08871316,0.0001019,53.2165,21.2058,83.1537,276.9571,0.00083305,0.00013006,0.0,0 STARLINK-3459,1 51757U 22016AV  23266.51221717  .00013006  00000-0  83305-3 0  9993,2 51757  53.2165  21.2058 0001019  83.1537 276.9571 15.08871316 88110,6917.785,95.436,540.355,538.945,0.0
51757.0,STARLINK-3459,PAYLOAD,2023-09-23 15:28:21,15.08872471,0.0001459,53.2171,20.6122,73.2838,286.8314,0.00091698,0.00014349,0.0,0 STARLINK-3459,1 51757U 22016AV  23266.64469592  .00014349  00000-0  91698-3 0  9997,2 51757  53.2171  20.6122 0001459  73.2838 286.8314 15.08872471 89247,6917.781,95.436,540.655,538.637,0.0
51757.0,STARLINK-3459,PAYLOAD,2023-09-24 13:43:46,15.08834078,0.0001376,53.2175,16.4518,81.8135,278.3013,0.00017084,2.432e-05,0.0,0 STARLINK-3459,1 51757U 22016AV  23267.57206554  .00002432  00000-0  17084-3 0  9994,2 51757  53.2175  16.4518 0001376  81.8135 278.3013 15.08834078 88271,6917.898,95.438,540.715,538.812,0.0
51757.0,STARLINK-3459,PAYLOAD,2023-09-24 21:40:42,15.08830693,0.0001492,53.2177,14.9592,73.1077,287.0079,0.00035065,5.296e-05,0.0,0 STARLINK-3459,1 51757U 22016AV  23267.90326948  .00005296  00000-0  35065-3 0  9991,2 51757  53.2177  14.9592 0001492  73.1077 287.0079 15.08830693 88320,6917.909,95.438,540.806,538.742,0.0
51757.0,STARLINK-3459,PAYLOAD,2023-09-25 00:51:28,15.08821511,0.0001188,53.2186,14.3658,99.2292,260.8835,-0.00015235,-2.71e-05,0.0,0 STARLINK-3459,1 51757U 22016AV  23268.03575119 -.00002710  00000-0 -15235-3 0  9999,2 51757  53.2186  14.3658 0001188  99.2292 260.8835 15.08821511 89450,6917.937,95.439,540.624,538.98,0.0
51757.0,STARLINK-3459,PAYLOAD,2023-09-25 13:34:34,15.08842306,0.0001591,53.2187,11.9888,97.5566,262.5607,0.0017218,0.00027222,0.0,0 STARLINK-3459,1 51757U 22016AV  23268.56567188  .00027222  00000-0  17218-2 0  9999,2 51757  53.2187  11.9888 0001591  97.5566 262.5607 15.08842306 88429,6917.873,95.437,540.839,538.638,0.0
51757.0,STARLINK-3459,PAYLOAD,2023-09-25 18:20:43,15.08859412,0.0001421,53.2178,11.0959,93.2675,266.848,0.0019678,0.00031185,0.0,0 STARLINK-3459,1 51757U 22016AV  23268.76438866  .00031185  00000-0  19678-2 0  9996,2 51757  53.2178  11.0959 0001421  93.2675 266.8480 15.08859412 89563,6917.821,95.436,540.669,538.703,0.0
51757.0,STARLINK-3459,PAYLOAD,2023-09-26 11:49:58,15.08831759,0.0001627,53.2186,7.8234,98.4376,261.68,0.00013459,1.854e-05,0.0,0 STARLINK-3459,1 51757U 22016AV  23269.49303751  .00001854  00000-0  13459-3 0  9993,2 51757  53.2186   7.8234 0001627  98.4376 261.6800 15.08831759 89679,6917.906,95.438,540.896,538.645,0.0
51757.0,STARLINK-3459,PAYLOAD,2023-09-26 13:25:21,15.08834731,0.0001634,53.2189,7.5257,99.6202,260.4975,0.0003571,5.399e-05,0.0,0 STARLINK-3459,1 51757U 22016AV  23269.55927773  .00005399  00000-0  35710-3 0  9998,2 51757  53.2189   7.5257 0001634  99.6202 260.4975 15.08834731 88574,6917.896,95.438,540.892,538.631,0.0
51757.0,STARLINK-3459,PAYLOAD,2023-09-27 13:16:08,15.08849479,0.0001408,53.2188,3.0712,96.5025,263.6127,0.00073039,0.00011358,0.0,0 STARLINK-3459,1 51757U 22016AV  23270.55288092  .00011358  00000-0  73039-3 0  9992,2 51757  53.2188   3.0712 0001408  96.5025 263.6127 15.08849479 88724,6917.851,95.437,540.69,538.742,0.0
51757.0,STARLINK-3459,PAYLOAD,2023-09-28 11:31:32,15.08843924,0.0001337,53.2187,358.9061,97.098,263.0164,0.00029795,4.458e-05,0.0,0 STARLINK-3459,1 51757U 22016AV  23271.48024235  .00004458  00000-0  29795-3 0  9995,2 51757  53.2187 358.9061 0001337  97.0980 263.0164 15.08843924 89971,6917.868,95.437,540.658,538.808,0.0
51757.0,STARLINK-3459,PAYLOAD,2023-09-28 14:42:19,15.08847979,0.0001351,53.2189,358.3119,92.8887,267.226,0.00040933,6.234e-05,0.0,0 STARLINK-3459,1 51757U 22016AV  23271.61272155  .00006234  00000-0  40933-3 0  9997,2 51757  53.2189 358.3119 0001351  92.8887 267.2260 15.08847979 88882,6917.856,95.437,540.656,538.786,0.0
51757.0,STARLINK-3459,PAYLOAD,2023-09-29 12:57:42,15.08847836,0.0001275,53.2181,354.1483,82.7999,277.3138,0.00031145,4.673e-05,0.0,0 STARLINK-3459,1 51757U 22016AV  23272.54008044  .00004673  00000-0  31145-3 0  9994,2 51757  53.2181 354.1483 0001275  82.7999 277.3138 15.08847836 90138,6917.856,95.437,540.603,538.839,0.0
51757.0,STARLINK-3459,PAYLOAD,2023-09-29 17:43:52,15.08852375,0.0001463,53.218,353.2529,94.0942,266.0217,0.00075871,0.00011812,0.0,0 STARLINK-3459,1 51757U 22016AV  23272.73879982  .00011812  00000-0  75871-3 0  9999,2 51757  53.2180 353.2529 0001463  94.0942 266.0217 15.08852375 89057,6917.843,95.437,540.72,538.695,0.0
51757.0,STARLINK-3459,PAYLOAD,2023-09-30 14:23:52,15.08858676,0.0001519,53.2178,349.3881,79.7713,280.3451,0.00041752,6.366e-05,0.0,0 STARLINK-3459,1 51757U 22016AV  23273.59991272  .00006366  00000-0  41752-3 0  9990,2 51757  53.2178 349.3881 0001519  79.7713 280.3451 15.08858676 90296,6917.823,95.436,540.739,538.637,0.0
51757.0,STARLINK-3459,PAYLOAD,2023-10-01 04:42:20,15.08850836,0.0001517,53.2164,346.7148,85.1898,274.9268,0.00012299,1.67e-05,0.0,0 STARLINK-3459,1 51757U 22016AV  23274.19607322  .00001670  00000-0  12299-3 0  9994,2 51757  53.2164 346.7148 0001517  85.1898 274.9268 15.08850836 90386,6917.847,95.437,540.762,538.663,0.0
51757.0,STARLINK-3459,PAYLOAD,2023-10-01 12:39:16,15.08854798,0.000133,53.2165,345.2273,88.5668,271.5477,0.00021821,3.188e-05,0.0,0 STARLINK-3459,1 51757U 22016AV  23274.52726980  .00003188  00000-0  21821-3 0  9990,2 51757  53.2165 345.2273 0001330  88.5668 271.5477 15.08854798 89323,6917.835,95.437,540.62,538.78,0.0
51757.0,STARLINK-3459,PAYLOAD,2023-10-02 10:54:39,15.08858581,0.0001372,53.2174,341.0616,92.0917,268.0232,0.00021121,3.077e-05,0.0,0 STARLINK-3459,1 51757U 22016AV  23275.45462284  .00003077  00000-0  21121-3 0  9997,2 51757  53.2174 341.0616 0001372  92.0917 268.0232 15.08858581 90574,6917.824,95.436,540.638,538.739,0.0
51757.0,STARLINK-3459,PAYLOAD,2023-10-02 15:40:48,15.08865081,0.0001339,53.2173,340.1693,86.7023,273.4122,0.00051803,7.972e-05,0.0,0 STARLINK-3459,1 51757U 22016AV  23275.65333946  .00007972  00000-0  51803-3 0  9999,2 51757  53.2173 340.1693 0001339  86.7023 273.4122 15.08865081 89499,6917.804,95.436,540.595,538.742,0.0
51757.0,STARLINK-3459,PAYLOAD,2023-10-03 04:23:54,15.08827432,0.0001632,53.2156,337.7933,88.5644,271.5535,-0.00023229,-3.982e-05,0.0,0 STARLINK-3459,1 51757U 22016AV  23276.18327482 -.00003982  00000-0 -23229-3 0  9996,2 51757  53.2156 337.7933 0001632  88.5644 271.5535 15.08827432 90682,6917.919,95.438,540.913,538.655,0.0
51757.0,STARLINK-3459,PAYLOAD,2023-10-03 10:45:27,15.08829597,0.0001328,53.2177,336.6019,92.8881,267.2263,-0.00013723,-2.471e-05,0.0,0 STARLINK-3459,1 51757U 22016AV  23276.44823597 -.00002471  00000-0 -13723-3 0  9993,2 51757  53.2177 336.6019 0001328  92.8881 267.2263 15.08829597 89616,6917.912,95.438,540.696,538.858,0.0
51757.0,STARLINK-3459,PAYLOAD,2023-10-03 15:31:36,15.0884143,0.0001391,53.2178,335.7101,89.3941,270.7211,0.00021039,3.062e-05,0.0,0 STARLINK-3459,1 51757U 22016AV  23276.64695386  .00003062  00000-0  21039-3 0  9992,2 51757  53.2178 335.7101 0001391  89.3941 270.7211 15.08841430 90756,6917.876,95.437,540.703,538.779,0.0
51757.0,STARLINK-3459,PAYLOAD,2023-10-04 04:14:42,15.08832565,0.0001796,53.216,333.3298,91.3821,268.7377,0.00017636,2.519e-05,0.0,0 STARLINK-3459,1 51757U 22016AV  23277.17688253  .00002519  00000-0  17636-3 0  9990,2 51757  53.2160 333.3298 0001796  91.3821 268.7377 15.08832565 90835,6917.903,95.438,541.011,538.526,0.0
51757.0,STARLINK-3459,PAYLOAD,2023-10-04 10:36:15,15.08842677,0.000155,53.2176,332.1428,85.0223,275.0946,0.00048298,7.408e-05,0.0,0 STARLINK-3459,1 51757U 22016AV  23277.44184219  .00007408  00000-0  48298-3 0  9993,2 51757  53.2176 332.1428 0001550  85.0223 275.0946 15.08842677 89766,6917.872,95.437,540.809,538.665,0.0
